[{"OBJECT_NAME":"FORTE","OBJECT_ID":"1997-047A","EPOCH":"2026-03-09T21:41:12.798240","MEAN_MOTION":14.27898785,"ECCENTRICITY":0.00196357,"INCLINATION":69.9517,"RA_OF_ASC_NODE":238.2652,"ARG_OF_PERICENTER":49.0734,"MEAN_ANOMALY":311.2084,"EPHEMERIS_TYPE":0,"CLASSIFICATION_TYPE":"U","NORAD_CAT_ID":24920,"ELEMENT_SET_NO":999,"REV_AT_EPOCH":48451,"BSTAR":0.0001374801,"MEAN_MOTION_DOT":2.83e-6,"MEAN_MOTION_DDOT":0},{"OBJECT_NAME":"METEOR 2-8 DEB","OBJECT_ID":"1982-025AM","EPOCH":"2026-02-11T12:32:59.278848","MEAN_MOTION":14.29220046,"ECCENTRICITY":0.00093496,"INCLINATION":82.5431,"RA_OF_ASC_NODE":336.7273,"ARG_OF_PERICENTER":236.5313,"MEAN_ANOMALY":123.4979,"EPHEMERIS_TYPE":0,"CLASSIFICATION_TYPE":"U","NORAD_CAT_ID":36351,"ELEMENT_SET_NO":999,"REV_AT_EPOCH":70617,"BSTAR":0.0018775499,"MEAN_MOTION_DOT":4.787e-5,"MEAN_MOTION_DDOT":0}]
